SL-14 R/B               
1 21423U 91042B   26019.12554323  .00000366  00000+0  43304-4 0  9993
2 21423  82.4924 266.6696 0018198  47.4077 312.8668 14.81776943845731
ERS-1                   
1 21574U 91050A   26019.06588167  .00000305  00000+0  11248-3 0  9999
2 21574  98.7895  36.0538 0031773 351.4480   8.6161 14.39398804808599
ARIANE 40 R/B           
1 21610U 91050F   26019.16542193  .00000255  00000+0  88850-4 0  9998
2 21610  98.2110  73.2360 0002561 203.8726 156.2347 14.42846642811858
INTERCOSMOS 25          
1 21819U 91086A   26019.28399771  .00000463  00000+0  90470-4 0  9995
2 21819  82.6088 339.8664 1486060 223.4080 124.0172 12.11860193490707
SL-8 R/B                
1 21876U 92008B   26019.28489677  .00000081  00000+0  67786-4 0  9998
2 21876  82.9290 304.5247 0033335 273.1501 200.8499 13.75966725702627
SL-8 R/B                
1 21938U 92020B   26019.25200122  .00000187  00000+0  17772-3 0  9990
2 21938  82.9298 190.4602 0030186  76.5266  96.4467 13.75539324694338
USA 81                  
1 21949U 92023A   26019.12932982  .00000177  00000+0  58126-4 0  9995
2 21949  85.0106 160.0145 0001875 117.1794 242.9590 14.32343556 87692
COSMOS 2219             
1 22219U 92076A   26019.28697110 -.00000095  00000+0 -25118-4 0  9998
2 22219  71.0616 121.3464 0020814 275.4953  84.3795 14.14081251711394
SL-16 R/B               
1 22220U 92076B   26019.22588428 -.00000060  00000+0 -61665-5 0  9995
2 22220  71.0010 292.5690 0012712 181.5174 340.9769 14.16850395714824
COSMOS 2221             
1 22236U 92080A   26019.27807640  .00002301  00000+0  20285-3 0  9991
2 22236  82.5060 326.3924 0014817   5.8456 354.2935 14.95945535773408
SL-16 R/B               
1 22285U 92093B   26019.27029266  .00000294  00000+0  17516-3 0  9991
2 22285  71.0223 108.0137 0004015 350.7686   9.3362 14.15439873706169
COSMOS 2228             
1 22286U 92094A   26019.25984993  .00002470  00000+0  21207-3 0  9998
2 22286  82.5190 284.6348 0019554 106.2052 254.1325 14.96926419768668
