CCSDS_OMM_VERS = 2.0
CREATION_DATE  = 
ORIGINATOR     = 

OBJECT_NAME    = SL-14 R/B
OBJECT_ID      = 1991-042B
CENTER_NAME    = EARTH
REF_FRAME      = TEME
TIME_SYSTEM    = UTC
MEAN_ELEMENT_THEORY = SGP/SGP4

EPOCH          = 2026-01-19T03:00:46.935072
MEAN_MOTION    = 14.81776943
ECCENTRICITY   = .00181986
INCLINATION    = 82.4924
RA_OF_ASC_NODE = 266.6696
ARG_OF_PERICENTER = 47.4077
MEAN_ANOMALY   = 312.8668

EPHEMERIS_TYPE = 0
CLASSIFICATION_TYPE = U
NORAD_CAT_ID   = 21423
ELEMENT_SET_NO = 999
REV_AT_EPOCH   = 84573
BSTAR          = .43303669E-4
MEAN_MOTION_DOT = .366E-5
MEAN_MOTION_DDOT = 0

CCSDS_OMM_VERS = 2.0
CREATION_DATE  = 
ORIGINATOR     = 

OBJECT_NAME    = ERS-1
OBJECT_ID      = 1991-050A
CENTER_NAME    = EARTH
REF_FRAME      = TEME
TIME_SYSTEM    = UTC
MEAN_ELEMENT_THEORY = SGP/SGP4

EPOCH          = 2026-01-19T01:34:52.176288
MEAN_MOTION    = 14.39398804
ECCENTRICITY   = .00317736
INCLINATION    = 98.7895
RA_OF_ASC_NODE = 36.0538
ARG_OF_PERICENTER = 351.4480
MEAN_ANOMALY   = 8.6161

EPHEMERIS_TYPE = 0
CLASSIFICATION_TYPE = U
NORAD_CAT_ID   = 21574
ELEMENT_SET_NO = 999
REV_AT_EPOCH   = 80859
BSTAR          = .11247792E-3
MEAN_MOTION_DOT = .305E-5
MEAN_MOTION_DDOT = 0

CCSDS_OMM_VERS = 2.0
CREATION_DATE  = 
ORIGINATOR     = 

OBJECT_NAME    = ARIANE 40 R/B
OBJECT_ID      = 1991-050F
CENTER_NAME    = EARTH
REF_FRAME      = TEME
TIME_SYSTEM    = UTC
MEAN_ELEMENT_THEORY = SGP/SGP4

EPOCH          = 2026-01-19T03:58:12.454752
MEAN_MOTION    = 14.42846642
ECCENTRICITY   = .00025619
INCLINATION    = 98.2110
RA_OF_ASC_NODE = 73.2360
ARG_OF_PERICENTER = 203.8726
MEAN_ANOMALY   = 156.2347

EPHEMERIS_TYPE = 0
CLASSIFICATION_TYPE = U
NORAD_CAT_ID   = 21610
ELEMENT_SET_NO = 999
REV_AT_EPOCH   = 81185
BSTAR          = .88849518E-4
MEAN_MOTION_DOT = .255E-5
MEAN_MOTION_DDOT = 0

CCSDS_OMM_VERS = 2.0
CREATION_DATE  = 
ORIGINATOR     = 

OBJECT_NAME    = INTERCOSMOS 25
OBJECT_ID      = 1991-086A
CENTER_NAME    = EARTH
REF_FRAME      = TEME
TIME_SYSTEM    = UTC
MEAN_ELEMENT_THEORY = SGP/SGP4

EPOCH          = 2026-01-19T06:48:57.402144
MEAN_MOTION    = 12.11860193
ECCENTRICITY   = .14860605
INCLINATION    = 82.6088
RA_OF_ASC_NODE = 339.8664
ARG_OF_PERICENTER = 223.4080
MEAN_ANOMALY   = 124.0172

EPHEMERIS_TYPE = 0
CLASSIFICATION_TYPE = U
NORAD_CAT_ID   = 21819
ELEMENT_SET_NO = 999
REV_AT_EPOCH   = 49070
BSTAR          = .90470261E-4
MEAN_MOTION_DOT = .463E-5
MEAN_MOTION_DDOT = 0

CCSDS_OMM_VERS = 2.0
CREATION_DATE  = 
ORIGINATOR     = 

OBJECT_NAME    = SL-8 R/B
OBJECT_ID      = 1992-008B
CENTER_NAME    = EARTH
REF_FRAME      = TEME
TIME_SYSTEM    = UTC
MEAN_ELEMENT_THEORY = SGP/SGP4

EPOCH          = 2026-01-19T06:50:15.080928
MEAN_MOTION    = 13.75966725
ECCENTRICITY   = .00333353
INCLINATION    = 82.9290
RA_OF_ASC_NODE = 304.5247
ARG_OF_PERICENTER = 273.1501
MEAN_ANOMALY   = 200.8499

EPHEMERIS_TYPE = 0
CLASSIFICATION_TYPE = U
NORAD_CAT_ID   = 21876
ELEMENT_SET_NO = 999
REV_AT_EPOCH   = 70262
BSTAR          = .6778558E-4
MEAN_MOTION_DOT = .81E-6
MEAN_MOTION_DDOT = 0

CCSDS_OMM_VERS = 2.0
CREATION_DATE  = 
ORIGINATOR     = 

OBJECT_NAME    = SL-8 R/B
OBJECT_ID      = 1992-020B
CENTER_NAME    = EARTH
REF_FRAME      = TEME
TIME_SYSTEM    = UTC
MEAN_ELEMENT_THEORY = SGP/SGP4

EPOCH          = 2026-01-19T06:02:52.905408
MEAN_MOTION    = 13.75539324
ECCENTRICITY   = .00301866
INCLINATION    = 82.9298
RA_OF_ASC_NODE = 190.4602
ARG_OF_PERICENTER = 76.5266
MEAN_ANOMALY   = 96.4467

EPHEMERIS_TYPE = 0
CLASSIFICATION_TYPE = U
NORAD_CAT_ID   = 21938
ELEMENT_SET_NO = 999
REV_AT_EPOCH   = 69433
BSTAR          = .17772225E-3
MEAN_MOTION_DOT = .187E-5
MEAN_MOTION_DDOT = 0

CCSDS_OMM_VERS = 2.0
CREATION_DATE  = 
ORIGINATOR     = 

OBJECT_NAME    = USA 81
OBJECT_ID      = 1992-023A
CENTER_NAME    = EARTH
REF_FRAME      = TEME
TIME_SYSTEM    = UTC
MEAN_ELEMENT_THEORY = SGP/SGP4

EPOCH          = 2026-01-19T03:06:14.096448
MEAN_MOTION    = 14.32343556
ECCENTRICITY   = .00018755
INCLINATION    = 85.0106
RA_OF_ASC_NODE = 160.0145
ARG_OF_PERICENTER = 117.1794
MEAN_ANOMALY   = 242.9590

EPHEMERIS_TYPE = 0
CLASSIFICATION_TYPE = U
NORAD_CAT_ID   = 21949
ELEMENT_SET_NO = 999
REV_AT_EPOCH   = 8769
BSTAR          = .5812621E-4
MEAN_MOTION_DOT = .177E-5
MEAN_MOTION_DDOT = 0

CCSDS_OMM_VERS = 2.0
CREATION_DATE  = 
ORIGINATOR     = 

OBJECT_NAME    = COSMOS 2219
OBJECT_ID      = 1992-076A
CENTER_NAME    = EARTH
REF_FRAME      = TEME
TIME_SYSTEM    = UTC
MEAN_ELEMENT_THEORY = SGP/SGP4

EPOCH          = 2026-01-19T06:53:14.303040
MEAN_MOTION    = 14.14081251
ECCENTRICITY   = .00208143
INCLINATION    = 71.0616
RA_OF_ASC_NODE = 121.3464
ARG_OF_PERICENTER = 275.4953
MEAN_ANOMALY   = 84.3795

EPHEMERIS_TYPE = 0
CLASSIFICATION_TYPE = U
NORAD_CAT_ID   = 22219
ELEMENT_SET_NO = 999
REV_AT_EPOCH   = 71139
BSTAR          = -.2511788E-4
MEAN_MOTION_DOT = -.95E-6
MEAN_MOTION_DDOT = 0

CCSDS_OMM_VERS = 2.0
CREATION_DATE  = 
ORIGINATOR     = 

OBJECT_NAME    = SL-16 R/B
OBJECT_ID      = 1992-076B
CENTER_NAME    = EARTH
REF_FRAME      = TEME
TIME_SYSTEM    = UTC
MEAN_ELEMENT_THEORY = SGP/SGP4

EPOCH          = 2026-01-19T05:25:16.401792
MEAN_MOTION    = 14.16850395
ECCENTRICITY   = .00127129
INCLINATION    = 71.0010
RA_OF_ASC_NODE = 292.5690
ARG_OF_PERICENTER = 181.5174
MEAN_ANOMALY   = 340.9769

EPHEMERIS_TYPE = 0
CLASSIFICATION_TYPE = U
NORAD_CAT_ID   = 22220
ELEMENT_SET_NO = 999
REV_AT_EPOCH   = 71482
BSTAR          = -.616647E-5
MEAN_MOTION_DOT = -.6E-6
MEAN_MOTION_DDOT = 0

CCSDS_OMM_VERS = 2.0
CREATION_DATE  = 
ORIGINATOR     = 

OBJECT_NAME    = COSMOS 2221
OBJECT_ID      = 1992-080A
CENTER_NAME    = EARTH
REF_FRAME      = TEME
TIME_SYSTEM    = UTC
MEAN_ELEMENT_THEORY = SGP/SGP4

EPOCH          = 2026-01-19T06:40:25.800960
MEAN_MOTION    = 14.95945535
ECCENTRICITY   = .00148179
INCLINATION    = 82.5060
RA_OF_ASC_NODE = 326.3924
ARG_OF_PERICENTER = 5.8456
MEAN_ANOMALY   = 354.2935

EPHEMERIS_TYPE = 0
CLASSIFICATION_TYPE = U
NORAD_CAT_ID   = 22236
ELEMENT_SET_NO = 999
REV_AT_EPOCH   = 77340
BSTAR          = .20284786E-3
MEAN_MOTION_DOT = .2301E-4
MEAN_MOTION_DDOT = 0

CCSDS_OMM_VERS = 2.0
CREATION_DATE  = 
ORIGINATOR     = 

OBJECT_NAME    = SL-16 R/B
OBJECT_ID      = 1992-093B
CENTER_NAME    = EARTH
REF_FRAME      = TEME
TIME_SYSTEM    = UTC
MEAN_ELEMENT_THEORY = SGP/SGP4

EPOCH          = 2026-01-19T06:29:13.285824
MEAN_MOTION    = 14.15439873
ECCENTRICITY   = .00040159
INCLINATION    = 71.0223
RA_OF_ASC_NODE = 108.0137
ARG_OF_PERICENTER = 350.7686
MEAN_ANOMALY   = 9.3362

EPHEMERIS_TYPE = 0
CLASSIFICATION_TYPE = U
NORAD_CAT_ID   = 22285
ELEMENT_SET_NO = 999
REV_AT_EPOCH   = 70616
BSTAR          = .1751615E-3
MEAN_MOTION_DOT = .294E-5
MEAN_MOTION_DDOT = 0

CCSDS_OMM_VERS = 2.0
CREATION_DATE  = 
ORIGINATOR     = 

OBJECT_NAME    = COSMOS 2228
OBJECT_ID      = 1992-094A
CENTER_NAME    = EARTH
REF_FRAME      = TEME
TIME_SYSTEM    = UTC
MEAN_ELEMENT_THEORY = SGP/SGP4

EPOCH          = 2026-01-19T06:14:11.033952
MEAN_MOTION    = 14.96926419
ECCENTRICITY   = .00195548
INCLINATION    = 82.5190
RA_OF_ASC_NODE = 284.6348
ARG_OF_PERICENTER = 106.2052
MEAN_ANOMALY   = 254.1325

EPHEMERIS_TYPE = 0
CLASSIFICATION_TYPE = U
NORAD_CAT_ID   = 22286
ELEMENT_SET_NO = 999
REV_AT_EPOCH   = 76866
BSTAR          = .21206601E-3
MEAN_MOTION_DOT = .247E-4
MEAN_MOTION_DDOT = 0

